[
    {
        "Altitude(m)": 553657.896028891,
        "Argument of Periapsis(deg)": 0.013245982221427002,
        "Eccentricity": 0.0,
        "Inclination(deg)": 53.0,
        "Latitude(deg)": 5.916655089487609,
        "Longitude(deg)": -2.1222395473863465,
        "Mean Anomaly(deg)": 7.455985735155173,
        "RAAN(deg)": 94.98028673705603,
        "Satellite Name": "Starlink Shell 1 439",
        "Satellite Number": 439,
        "Semi-Major Axis(m)": 6931778.249405717,
        "Time(s)": 380
    },
    {
        "Altitude(m)": 553626.9855567843,
        "Argument of Periapsis(deg)": 0.013594560700938237,
        "Eccentricity": 0.0,
        "Inclination(deg)": 53.0,
        "Latitude(deg)": 6.418983517748767,
        "Longitude(deg)": -1.7824268738047784,
        "Mean Anomaly(deg)": 8.082816938711817,
        "RAAN(deg)": 94.97976796697857,
        "Satellite Name": "Starlink Shell 1 439",
        "Satellite Number": 439,
        "Semi-Major Axis(m)": 6931778.249405717,
        "Time(s)": 390
    },
    {
        "Altitude(m)": 553598.864995289,
        "Argument of Periapsis(deg)": 0.013943139180449475,
        "Eccentricity": 0.0,
        "Inclination(deg)": 53.0,
        "Latitude(deg)": 6.921025216129499,
        "Longitude(deg)": -1.4418623782596387,
        "Mean Anomaly(deg)": 8.709648142268577,
        "RAAN(deg)": 94.9792491969011,
        "Satellite Name": "Starlink Shell 1 439",
        "Satellite Number": 439,
        "Semi-Major Axis(m)": 6931778.249405717,
        "Time(s)": 400
    },
    {
        "Altitude(m)": 553573.524532224,
        "Argument of Periapsis(deg)": 0.014291717659960712,
        "Eccentricity": 0.0,
        "Inclination(deg)": 53.0,
        "Latitude(deg)": 7.422756201045981,
        "Longitude(deg)": -1.1004857311385112,
        "Mean Anomaly(deg)": 9.336479345825248,
        "RAAN(deg)": 94.97873042682362,
        "Satellite Name": "Starlink Shell 1 439",
        "Satellite Number": 439,
        "Semi-Major Axis(m)": 6931778.249405717,
        "Time(s)": 410
    },
    {
        "Altitude(m)": 553550.9530471406,
        "Argument of Periapsis(deg)": 0.014640296139471948,
        "Eccentricity": 0.0,
        "Inclination(deg)": 53.0,
        "Latitude(deg)": 7.924152319434806,
        "Longitude(deg)": -0.7582367509385596,
        "Mean Anomaly(deg)": 9.963310549381994,
        "RAAN(deg)": 94.97821165674615,
        "Satellite Name": "Starlink Shell 1 439",
        "Satellite Number": 439,
        "Semi-Major Axis(m)": 6931778.249405717,
        "Time(s)": 420
    },
    {
        "Altitude(m)": 553531.1381196181,
        "Argument of Periapsis(deg)": 0.014988874618983185,
        "Eccentricity": 0.0,
        "Inclination(deg)": 53.0,
        "Latitude(deg)": 8.425189235889468,
        "Longitude(deg)": -0.4150548739792756,
        "Mean Anomaly(deg)": 10.590141752938665,
        "RAAN(deg)": 94.97769288666868,
        "Satellite Name": "Starlink Shell 1 439",
        "Satellite Number": 439,
        "Semi-Major Axis(m)": 6931778.249405717,
        "Time(s)": 430
    },
    {
        "Altitude(m)": 553514.0660382254,
        "Argument of Periapsis(deg)": 0.015337453098494424,
        "Eccentricity": 0.0,
        "Inclination(deg)": 53.0,
        "Latitude(deg)": 8.925842419626271,
        "Longitude(deg)": -0.07087862402244957,
        "Mean Anomaly(deg)": 11.216972956495423,
        "RAAN(deg)": 94.9771741165912,
        "Satellite Name": "Starlink Shell 1 439",
        "Satellite Number": 439,
        "Semi-Major Axis(m)": 6931778.249405717,
        "Time(s)": 440
    },
    {
        "Altitude(m)": 553499.7218101119,
        "Argument of Periapsis(deg)": 0.01568603157800566,
        "Eccentricity": 0.0,
        "Inclination(deg)": 53.0,
        "Latitude(deg)": 9.42608713126253,
        "Longitude(deg)": 0.27435340532776553,
        "Mean Anomaly(deg)": 11.843804160052171,
        "RAAN(deg)": 94.97665534651374,
        "Satellite Name": "Starlink Shell 1 439",
        "Satellite Number": 439,
        "Semi-Major Axis(m)": 6931778.249405717,
        "Time(s)": 450
    },
    {
        "Altitude(m)": 553488.0891712208,
        "Argument of Periapsis(deg)": 0.0160346100575169,
        "Eccentricity": 0.0,
        "Inclination(deg)": 53.0,
        "Latitude(deg)": 9.925898409402778,
        "Longitude(deg)": 0.6207030811930203,
        "Mean Anomaly(deg)": 12.470635363608842,
        "RAAN(deg)": 94.97613657643626,
        "Satellite Name": "Starlink Shell 1 439",
        "Satellite Number": 439,
        "Semi-Major Axis(m)": 6931778.249405717,
        "Time(s)": 460
    },
    {
        "Altitude(m)": 553479.1505971663,
        "Argument of Periapsis(deg)": 0.016383188537028134,
        "Eccentricity": 0.0,
        "Inclination(deg)": 53.0,
        "Latitude(deg)": 10.425251057016851,
        "Longitude(deg)": 0.968233262082835,
        "Mean Anomaly(deg)": 13.097466567165599,
        "RAAN(deg)": 94.97561780635878,
        "Satellite Name": "Starlink Shell 1 439",
        "Satellite Number": 439,
        "Semi-Major Axis(m)": 6931778.249405717,
        "Time(s)": 470
    },
    {
        "Altitude(m)": 553472.8873146892,
        "Argument of Periapsis(deg)": 0.01673176701653937,
        "Eccentricity": 0.0,
        "Inclination(deg)": 53.0,
        "Latitude(deg)": 10.924119627594566,
        "Longitude(deg)": 1.3170068157755872,
        "Mean Anomaly(deg)": 13.724297770722258,
        "RAAN(deg)": 94.9750990362813,
        "Satellite Name": "Starlink Shell 1 439",
        "Satellite Number": 439,
        "Semi-Major Axis(m)": 6931778.249405717,
        "Time(s)": 480
    },
    {
        "Altitude(m)": 553469.2793137582,
        "Argument of Periapsis(deg)": 0.017080345496050607,
        "Eccentricity": 0.0,
        "Inclination(deg)": 53.0,
        "Latitude(deg)": 11.422478411072031,
        "Longitude(deg)": 1.667087150163829,
        "Mean Anomaly(deg)": 14.351128974279016,
        "RAAN(deg)": 94.97458026620384,
        "Satellite Name": "Starlink Shell 1 439",
        "Satellite Number": 439,
        "Semi-Major Axis(m)": 6931778.249405717,
        "Time(s)": 490
    },
    {
        "Altitude(m)": 553468.3053602596,
        "Argument of Periapsis(deg)": 0.017428923975561842,
        "Eccentricity": 0.0,
        "Inclination(deg)": 53.0,
        "Latitude(deg)": 11.92030141951204,
        "Longitude(deg)": 2.018538744184083,
        "Mean Anomaly(deg)": 14.977960177835687,
        "RAAN(deg)": 94.97406149612637,
        "Satellite Name": "Starlink Shell 1 439",
        "Satellite Number": 439,
        "Semi-Major Axis(m)": 6931778.249405717,
        "Time(s)": 500
    },
    {
        "Altitude(m)": 553469.9430093067,
        "Argument of Periapsis(deg)": 0.01777750245507308,
        "Eccentricity": 0.0,
        "Inclination(deg)": 53.0,
        "Latitude(deg)": 12.417562372525946,
        "Longitude(deg)": 2.3714261659556275,
        "Mean Anomaly(deg)": 15.604791381392431,
        "RAAN(deg)": 94.9735427260489,
        "Satellite Name": "Starlink Shell 1 439",
        "Satellite Number": 439,
        "Semi-Major Axis(m)": 6931778.249405717,
        "Time(s)": 510
    },
    {
        "Altitude(m)": 553474.1686191248,
        "Argument of Periapsis(deg)": 0.018126080934584315,
        "Eccentricity": 0.0,
        "Inclination(deg)": 53.0,
        "Latitude(deg)": 12.914234682427832,
        "Longitude(deg)": 2.7258146038646722,
        "Mean Anomaly(deg)": 16.231622584949193,
        "RAAN(deg)": 94.97302395597143,
        "Satellite Name": "Starlink Shell 1 439",
        "Satellite Number": 439,
        "Semi-Major Axis(m)": 6931778.249405717,
        "Time(s)": 520
    },
    {
        "Altitude(m)": 553480.9573655253,
        "Argument of Periapsis(deg)": 0.018474659414095554,
        "Eccentricity": 0.0,
        "Inclination(deg)": 53.0,
        "Latitude(deg)": 13.41029143910729,
        "Longitude(deg)": 3.08177039771429,
        "Mean Anomaly(deg)": 16.858453788505862,
        "RAAN(deg)": 94.97250518589394,
        "Satellite Name": "Starlink Shell 1 439",
        "Satellite Number": 439,
        "Semi-Major Axis(m)": 6931778.249405717,
        "Time(s)": 530
    },
    {
        "Altitude(m)": 553490.2832569798,
        "Argument of Periapsis(deg)": 0.018823237893606792,
        "Eccentricity": 0.0,
        "Inclination(deg)": 53.0,
        "Latitude(deg)": 13.905705394605112,
        "Longitude(deg)": 3.439360057055569,
        "Mean Anomaly(deg)": 17.48528499206261,
        "RAAN(deg)": 94.97198641581647,
        "Satellite Name": "Starlink Shell 1 439",
        "Satellite Number": 439,
        "Semi-Major Axis(m)": 6931778.249405717,
        "Time(s)": 540
    },
    {
        "Altitude(m)": 553502.1191502073,
        "Argument of Periapsis(deg)": 0.019171816373118027,
        "Eccentricity": 0.0,
        "Inclination(deg)": 53.0,
        "Latitude(deg)": 14.400448947383838,
        "Longitude(deg)": 3.7986507924331105,
        "Mean Anomaly(deg)": 18.11211619561928,
        "RAAN(deg)": 94.97146764573901,
        "Satellite Name": "Starlink Shell 1 439",
        "Satellite Number": 439,
        "Semi-Major Axis(m)": 6931778.249405717,
        "Time(s)": 550
    },
    {
        "Altitude(m)": 553516.4367663958,
        "Argument of Periapsis(deg)": 0.019520394852629266,
        "Eccentricity": 0.0,
        "Inclination(deg)": 53.0,
        "Latitude(deg)": 14.89449412627981,
        "Longitude(deg)": 4.15971104665891,
        "Mean Anomaly(deg)": 18.738947399175938,
        "RAAN(deg)": 94.97094887566153,
        "Satellite Name": "Starlink Shell 1 439",
        "Satellite Number": 439,
        "Semi-Major Axis(m)": 6931778.249405717,
        "Time(s)": 560
    }
]